NORAD_CAT_ID,OBJECT_NAME,OBJECT_TYPE,EPOCH,MEAN_MOTION,ECCENTRICITY,INCLINATION,RA_OF_ASC_NODE,ARG_OF_PERICENTER,MEAN_ANOMALY,BSTAR,MEAN_MOTION_DOT,MEAN_MOTION_DDOT,TLE_LINE0,TLE_LINE1,TLE_LINE2,SEMIMAJOR_AXIS,PERIOD,APOGEE,PERIGEE,DECAYED
52874.0,STARLINK-4210,PAYLOAD,2022-08-16 14:00:01,15.73246234,0.000346,53.2147,107.6261,11.5844,34.0654,-0.00022658,-0.00032375,0.0,0 STARLINK-4210,1 52874U 22062AW  22228.58334491 -.00032375  00000-0 -22658-3 0  9999,2 52874  53.2147 107.6261 0003460  11.5844  34.0654 15.73246234  1302,6727.763000000001,91.53,351.956,347.301,0.0
52874.0,STARLINK-4210,PAYLOAD,2022-08-16 22:00:00,15.73219368,0.0003668,53.2147,105.9783,13.4974,121.1244,2.0827e-05,2.303e-05,0.0,0 STARLINK-4210,1 52874U 22062AW  22228.91667824  .00002303  00000-0  20827-4 0  9998,2 52874  53.2147 105.9783 0003668  13.4974 121.1244 15.73219368  1308,6727.84,91.532,352.173,347.237,0.0
52874.0,STARLINK-4210,PAYLOAD,2022-08-17 14:00:01,15.73203961,0.0003448,53.2152,102.677,10.0271,302.4833,0.00011086,0.0001496999999999,0.0,0 STARLINK-4210,1 52874U 22062AW  22229.58334491  .00014970  00000-0  11086-3 0  9992,2 52874  53.2152 102.6770 0003448  10.0271 302.4833 15.73203961  1303,6727.884,91.533,352.069,347.42900000000014,0.0
52874.0,STARLINK-4210,PAYLOAD,2022-08-18 08:00:01,15.73241893,0.0003586,53.2152,98.9665,8.3168,234.3118,0.00015819,0.00021681,0.0,0 STARLINK-4210,1 52874U 22062AW  22230.33334491  .00021681  00000-0  15819-3 0  9992,2 52874  53.2152  98.9665 0003586   8.3168 234.3118 15.73241893 10238,6727.776,91.531,352.05300000000005,347.228,0.0
52874.0,STARLINK-4210,PAYLOAD,2022-08-18 14:00:01,15.73275983,0.0003424,53.2152,97.7283,10.4775,208.8851,-0.00013417,-0.00019478,0.0,0 STARLINK-4210,1 52874U 22062AW  22230.58334491 -.00019478  00000-0 -13417-3 0  9994,2 52874  53.2152  97.7283 0003424  10.4775 208.8851 15.73275983  1305,6727.679,91.529,351.847,347.24,0.0
52874.0,STARLINK-4210,PAYLOAD,2022-08-18 22:00:00,15.73297506,0.0003745,53.2159,96.0805,9.5504,298.8186,-0.0011079,-0.00154018,0.0,0 STARLINK-4210,1 52874U 22062AW  22230.91667824 -.00154018  00000-0 -11079-2 0  9991,2 52874  53.2159  96.0805 0003745   9.5504 298.8186 15.73297506  1304,6727.6169999999975,91.528,352.00199999999984,346.963,0.0
52874.0,STARLINK-4210,PAYLOAD,2022-08-19 06:00:00,15.72913038,0.0003535,53.2164,94.4276,9.2718,28.1522,0.0013005,0.00183705,0.0,0 STARLINK-4210,1 52874U 22062AW  22231.25001157  .00183705  00000-0  13005-2 0  9994,2 52874  53.2164  94.4276 0003535   9.2718  28.1522 15.72913038 10374,6728.7130000000025,91.55,352.957,348.2,0.0
52874.0,STARLINK-4210,PAYLOAD,2022-08-19 14:00:01,15.73104539,0.000347,53.2158,92.7796,8.9426,117.3004,0.0003621999999999,0.0005032,0.0,0 STARLINK-4210,1 52874U 22062AW  22231.58334491  .00050320  00000-0  36220-3 0  9991,2 52874  53.2158  92.7796 0003470   8.9426 117.3004 15.73104539  1303,6728.167,91.539,352.367,347.6980000000001,0.0
52874.0,STARLINK-4210,PAYLOAD,2022-08-19 16:00:00,15.73113191,0.0003491,53.216,92.3677,10.2505,228.1958,0.00033125,0.00045961,0.0,0 STARLINK-4210,1 52874U 22062AW  22231.66667824  .00045961  00000-0  33125-3 0  9995,2 52874  53.2160  92.3677 0003491  10.2505 228.1958 15.73113191 10445,6728.143,91.538,352.356,347.659,0.0
52874.0,STARLINK-4210,PAYLOAD,2022-08-19 22:00:00,15.73130012,0.0003783,53.2159,91.1323,10.3902,204.6867,0.00029499,0.00040868,0.0,0 STARLINK-4210,1 52874U 22062AW  22231.91667824  .00040868  00000-0  29499-3 0  9993,2 52874  53.2159  91.1323 0003783  10.3902 204.6867 15.73130012  1308,6728.095,91.537,352.505,347.414,0.0
52874.0,STARLINK-4210,PAYLOAD,2022-08-20 14:00:01,15.73192511,0.0003538,53.2159,87.8317,11.8883,20.9487,0.00056478,0.00079388,0.0,0 STARLINK-4210,1 52874U 22062AW  22232.58334491  .00079388  00000-0  56478-3 0  9994,2 52874  53.2159  87.8317 0003538  11.8883  20.9487 15.73192511  1304,6727.917,91.534,352.162,347.401,0.0
52874.0,STARLINK-4210,PAYLOAD,2022-08-20 22:00:00,15.73226055,0.0003785,53.2157,86.1844,10.6034,111.1681,0.00023954,0.00033176,0.0,0 STARLINK-4210,1 52874U 22062AW  22232.91667824  .00033176  00000-0  23954-3 0  9998,2 52874  53.2157  86.1844 0003785  10.6034 111.1681 15.73226055  1308,6727.821,91.532,352.232,347.139,0.0
52874.0,STARLINK-4210,PAYLOAD,2022-08-21 06:00:00,15.73282115,0.0003675,53.2157,84.53399999999998,7.3185,203.4063,-0.0012406,-0.00171914,0.0,0 STARLINK-4210,1 52874U 22062AW  22233.25001157 -.00171914  00000-0 -12406-2 0  9991,2 52874  53.2157  84.5340 0003675   7.3185 203.4063 15.73282115 10688,6727.661,91.528,351.99800000000016,347.05400000000014,0.0
52874.0,STARLINK-4210,PAYLOAD,2022-08-21 14:00:01,15.73154928,0.0003542,53.2162,82.8832,5.3866,294.2936,0.0003092,0.00042922,0.0,0 STARLINK-4210,1 52874U 22062AW  22233.58334491  .00042922  00000-0  30920-3 0  9993,2 52874  53.2162  82.8832 0003542   5.3866 294.2936 15.73154928 10742,6728.024,91.536,352.272,347.506,0.0
52874.0,STARLINK-4210,PAYLOAD,2022-08-21 22:00:00,15.73174152,0.0003843999999999,53.2162,81.2359,6.1562,22.4228,0.00028801,0.00039959,0.0,0 STARLINK-4210,1 52874U 22062AW  22233.91667824  .00039959  00000-0  28801-3 0  9990,2 52874  53.2162  81.2359 0003844   6.1562  22.4228 15.73174152  1304,6727.969,91.535,352.42,347.24800000000016,0.0
52874.0,STARLINK-4210,PAYLOAD,2022-08-22 12:00:00,15.73232951,0.0003658,53.2159,78.3472,8.7454,85.4593,-0.00018565,-0.00026643,0.0,0 STARLINK-4210,1 52874U 22062AW  22234.50001157 -.00026643  00000-0 -18565-3 0  9991,2 52874  53.2159  78.3472 0003658   8.7454  85.4593 15.73232951 10883,6727.801,91.531,352.12699999999984,347.205,0.0
52874.0,STARLINK-4210,PAYLOAD,2022-08-22 22:00:00,15.73184339,0.0003975,53.2158,76.2877,11.4643,283.9217,0.00032756,0.00045583,0.0,0 STARLINK-4210,1 52874U 22062AW  22234.91667824  .00045583  00000-0  32756-3 0  9995,2 52874  53.2158  76.2877 0003975  11.4643 283.9217 15.73184339  1302,6727.94,91.534,352.47900000000016,347.13,0.0
52874.0,STARLINK-4210,PAYLOAD,2022-08-23 14:00:01,15.73202341,0.0003726,53.2161,72.9865,10.4536,102.8076,-7.4955e-05,-0.00011135,0.0,0 STARLINK-4210,1 52874U 22062AW  22235.58334491 -.00011135  00000-0 -74955-4 0  9996,2 52874  53.2161  72.9865 0003726  10.4536 102.8076 15.73202341 11059,6727.888000000001,91.533,352.26,347.247,0.0
52874.0,STARLINK-4210,PAYLOAD,2022-08-23 22:00:01,15.73176159,0.0004068999999999,53.2162,71.339,9.6377,192.6214,0.00035698,0.00049742,0.0,0 STARLINK-4210,1 52874U 22062AW  22235.91668981  .00049742  00000-0  35698-3 0  9990,2 52874  53.2162  71.3390 0004069   9.6377 192.6214 15.73176159  1305,6727.9630000000025,91.535,352.566,347.091,0.0
52874.0,STARLINK-4210,PAYLOAD,2022-08-24 06:00:00,15.73224948,0.0003925,53.2158,69.688,9.4865,281.6299,1.5555e-05,1.562e-05,0.0,0 STARLINK-4210,1 52874U 22062AW  22236.25001157  .00001562  00000-0  15555-4 0  9993,2 52874  53.2158  69.6880 0003925   9.4865 281.6299 15.73224948 11161,6727.824000000001,91.532,352.33,347.048,0.0
52874.0,STARLINK-4210,PAYLOAD,2022-08-24 14:00:01,15.73265422,0.0003826,53.2158,68.0382,9.4313,10.6245,-0.00059049,-0.00082954,0.0,0 STARLINK-4210,1 52874U 22062AW  22236.58334491 -.00082954  00000-0 -59049-3 0  9990,2 52874  53.2158  68.0382 0003826   9.4313  10.6245 15.73265422  1307,6727.709,91.529,352.148,347.0,0.0
52874.0,STARLINK-4210,PAYLOAD,2022-08-24 22:00:00,15.73171375,0.0004085,53.2155,66.3905,7.2761,101.7726,0.00043135,0.00060299,0.0,0 STARLINK-4210,1 52874U 22062AW  22236.91667824  .00060299  00000-0  43135-3 0  9991,2 52874  53.2155  66.3905 0004085   7.2761 101.7726 15.73171375  1306,6727.977,91.535,352.59,347.093,0.0
52874.0,STARLINK-4210,PAYLOAD,2022-08-25 06:00:02,15.73215916,0.0003948,53.2155,64.7391,7.0873,190.9411,2.2941e-05,2.599e-05,0.0,0 STARLINK-4210,1 52874U 22062AW  22237.25002315  .00002599  00000-0  22941-4 0  9999,2 52874  53.2155  64.7391 0003948   7.0873 190.9411 15.73215916 11319,6727.85,91.532,352.371,347.059,0.0
52874.0,STARLINK-4210,PAYLOAD,2022-08-25 14:00:01,15.73259273,0.0003845,53.2157,63.0893,7.1605,279.737,-0.00071299,-0.00099811,0.0,0 STARLINK-4210,1 52874U 22062AW  22237.58334491 -.00099811  00000-0 -71299-3 0  9992,2 52874  53.2157  63.0893 0003845   7.1605 279.7370 15.73259273  1302,6727.726,91.53,352.17800000000005,347.004,0.0
52874.0,STARLINK-4210,PAYLOAD,2022-08-25 22:00:00,15.73112567,0.0003988,53.2174,61.4364,9.9571,5.8759,0.0010472,0.00148456,0.0,0 STARLINK-4210,1 52874U 22062AW  22237.91667824  .00148456  00000-0  10472-2 0  9991,2 52874  53.2174  61.4364 0003988   9.9571   5.8759 15.73112567 11423,6728.144,91.538,352.6930000000001,347.326,0.0
52874.0,STARLINK-4210,PAYLOAD,2022-08-26 14:00:01,15.73254348,0.0003983,53.2156,58.1406,5.5420000000000025,188.2749,-0.0005953999999999,-0.00083597,0.0,0 STARLINK-4210,1 52874U 22062AW  22238.58335648 -.00083597  00000-0 -59540-3 0  9997,2 52874  53.2156  58.1406 0003983   5.5420 188.2749 15.73254348  1308,6727.74,91.53,352.285,346.926,0.0
52874.0,STARLINK-4210,PAYLOAD,2022-08-26 22:00:00,15.73167046,0.0004298999999999,53.2152,56.4928,4.2587,278.4511,0.00051497,0.00072201,0.0,0 STARLINK-4210,1 52874U 22062AW  22238.91667824  .00072201  00000-0  51497-3 0  9999,2 52874  53.2152  56.4928 0004299   4.2587 278.4511 15.73167046  1302,6727.989000000001,91.535,352.746,346.962,0.0
52874.0,STARLINK-4210,PAYLOAD,2022-08-27 14:00:01,15.73231768,0.0004141,53.2155,53.1916,8.2312,92.3491,-0.00041265,-0.00058248,0.0,0 STARLINK-4210,1 52874U 22062AW  22239.58334491 -.00058248  00000-0 -41265-3 0  9993,2 52874  53.2155  53.1916 0004141   8.2312  92.3491 15.73231768  1305,6727.805,91.531,352.456,346.884,0.0
52874.0,STARLINK-4210,PAYLOAD,2022-08-27 22:00:00,15.73200099,0.0003878,53.2175,51.5381,4.6859,184.7101,6.0355e-05,7.857e-05,0.0,0 STARLINK-4210,1 52874U 22062AW  22239.91667824  .00007857  00000-0  60355-4 0  9999,2 52874  53.2175  51.5381 0003878   4.6859 184.7101 15.73200099 11732,6727.895,91.533,352.369,347.151,0.0
